{
  "norad_id": 66070,
  "name": "STARLINK-35295",
  "history": [
    {
      "epoch": "2026-03-28T14:36:02.824128",
      "apogee_km": 476.0534195679111,
      "perigee_km": 474.3661255925017,
      "latitude_deg": -44.19532661658392,
      "longitude_deg": 125.40313791995868,
      "semi_major_axis_km": 6853.346772580207,
      "eccentricity": 0.0001231,
      "inclination_deg": 53.159,
      "raan_deg": 157.7011,
      "arg_perigee_deg": 77.4707,
      "mean_anomaly_deg": 282.6432,
      "mean_motion_rev_day": 15.30201774
    }
  ]
}